CCSDS_OMM_VERS = 2.0
CREATION_DATE  = 
ORIGINATOR     = 

OBJECT_NAME    = UNKNOWN
OBJECT_ID      = 
CENTER_NAME    = EARTH
REF_FRAME      = TEME
TIME_SYSTEM    = UTC
MEAN_ELEMENT_THEORY = SGP/SGP4

EPOCH          = 2025-12-07T17:28:00.984288
MEAN_MOTION    = 14.34880956
ECCENTRICITY   = .0048613
INCLINATION    = 99.7876
RA_OF_ASC_NODE = 141.8133
ARG_OF_PERICENTER = 29.4215
MEAN_ANOMALY   = 330.9687

EPHEMERIS_TYPE = 0
CLASSIFICATION_TYPE = U
NORAD_CAT_ID   = 82820
ELEMENT_SET_NO = 999
REV_AT_EPOCH   = 62491
BSTAR          = .21502E-2
MEAN_MOTION_DOT = .6142E-4
MEAN_MOTION_DDOT = 0

CCSDS_OMM_VERS = 2.0
CREATION_DATE  = 
ORIGINATOR     = 

OBJECT_NAME    = UNKNOWN
OBJECT_ID      = 
CENTER_NAME    = EARTH
REF_FRAME      = TEME
TIME_SYSTEM    = UTC
MEAN_ELEMENT_THEORY = SGP/SGP4

EPOCH          = 2025-12-02T00:14:47.391072
MEAN_MOTION    = 13.87721114
ECCENTRICITY   = .0126258
INCLINATION    = 82.6891
RA_OF_ASC_NODE = 73.0180
ARG_OF_PERICENTER = 310.3434
MEAN_ANOMALY   = 48.6754

EPHEMERIS_TYPE = 0
CLASSIFICATION_TYPE = U
NORAD_CAT_ID   = 82854
ELEMENT_SET_NO = 999
REV_AT_EPOCH   = 60631
BSTAR          = .20117E-2
MEAN_MOTION_DOT = .2552E-4
MEAN_MOTION_DDOT = 0

CCSDS_OMM_VERS = 2.0
CREATION_DATE  = 
ORIGINATOR     = 

OBJECT_NAME    = UNKNOWN
OBJECT_ID      = 
CENTER_NAME    = EARTH
REF_FRAME      = TEME
TIME_SYSTEM    = UTC
MEAN_ELEMENT_THEORY = SGP/SGP4

EPOCH          = 2025-12-07T23:23:52.996416
MEAN_MOTION    = 14.24363962
ECCENTRICITY   = .004035
INCLINATION    = 99.9957
RA_OF_ASC_NODE = 235.4941
ARG_OF_PERICENTER = 299.7156
MEAN_ANOMALY   = 60.0006

EPHEMERIS_TYPE = 0
CLASSIFICATION_TYPE = U
NORAD_CAT_ID   = 82873
ELEMENT_SET_NO = 999
REV_AT_EPOCH   = 62055
BSTAR          = .24081E-2
MEAN_MOTION_DOT = .5564E-4
MEAN_MOTION_DDOT = 0

CCSDS_OMM_VERS = 2.0
CREATION_DATE  = 
ORIGINATOR     = 

OBJECT_NAME    = UNKNOWN
OBJECT_ID      = 
CENTER_NAME    = EARTH
REF_FRAME      = TEME
TIME_SYSTEM    = UTC
MEAN_ELEMENT_THEORY = SGP/SGP4

EPOCH          = 2025-12-07T16:00:45.301536
MEAN_MOTION    = 14.15137371
ECCENTRICITY   = .0377216
INCLINATION    = 98.6751
RA_OF_ASC_NODE = 325.1390
ARG_OF_PERICENTER = 297.7082
MEAN_ANOMALY   = 58.6300

EPHEMERIS_TYPE = 0
CLASSIFICATION_TYPE = U
NORAD_CAT_ID   = 82875
ELEMENT_SET_NO = 999
REV_AT_EPOCH   = 54375
BSTAR          = .49942E-3
MEAN_MOTION_DOT = .188E-4
MEAN_MOTION_DDOT = 0

CCSDS_OMM_VERS = 2.0
CREATION_DATE  = 
ORIGINATOR     = 

OBJECT_NAME    = UNKNOWN
OBJECT_ID      = 
CENTER_NAME    = EARTH
REF_FRAME      = TEME
TIME_SYSTEM    = UTC
MEAN_ELEMENT_THEORY = SGP/SGP4

EPOCH          = 2025-12-08T13:14:54.110688
MEAN_MOTION    = 14.31496561
ECCENTRICITY   = .0022618
INCLINATION    = 98.9627
RA_OF_ASC_NODE = 97.5086
ARG_OF_PERICENTER = 59.1660
MEAN_ANOMALY   = 301.1744

EPHEMERIS_TYPE = 0
CLASSIFICATION_TYPE = U
NORAD_CAT_ID   = 82893
ELEMENT_SET_NO = 999
REV_AT_EPOCH   = 42337
BSTAR          = .43089E-2
MEAN_MOTION_DOT = .11451E-3
MEAN_MOTION_DDOT = 0

CCSDS_OMM_VERS = 2.0
CREATION_DATE  = 
ORIGINATOR     = 

OBJECT_NAME    = UNKNOWN
OBJECT_ID      = 
CENTER_NAME    = EARTH
REF_FRAME      = TEME
TIME_SYSTEM    = UTC
MEAN_ELEMENT_THEORY = SGP/SGP4

EPOCH          = 2025-12-07T20:01:41.943936
MEAN_MOTION    = 13.27648375
ECCENTRICITY   = .0776306
INCLINATION    = 65.8343
RA_OF_ASC_NODE = 185.5867
ARG_OF_PERICENTER = 271.0790
MEAN_ANOMALY   = 80.1493

EPHEMERIS_TYPE = 0
CLASSIFICATION_TYPE = U
NORAD_CAT_ID   = 82912
ELEMENT_SET_NO = 999
REV_AT_EPOCH   = 57867
BSTAR          = .26379E-2
MEAN_MOTION_DOT = .6452E-4
MEAN_MOTION_DDOT = 0

CCSDS_OMM_VERS = 2.0
CREATION_DATE  = 
ORIGINATOR     = 

OBJECT_NAME    = UNKNOWN
OBJECT_ID      = 
CENTER_NAME    = EARTH
REF_FRAME      = TEME
TIME_SYSTEM    = UTC
MEAN_ELEMENT_THEORY = SGP/SGP4

EPOCH          = 2025-11-28T09:26:35.096928
MEAN_MOTION    = 13.22925587
ECCENTRICITY   = .03751
INCLINATION    = 99.9125
RA_OF_ASC_NODE = 127.6218
ARG_OF_PERICENTER = 38.7846
MEAN_ANOMALY   = 323.9572

EPHEMERIS_TYPE = 0
CLASSIFICATION_TYPE = U
NORAD_CAT_ID   = 82961
ELEMENT_SET_NO = 999
REV_AT_EPOCH   = 55381
BSTAR          = .16926E-1
MEAN_MOTION_DOT = .10294E-3
MEAN_MOTION_DDOT = 0

CCSDS_OMM_VERS = 2.0
CREATION_DATE  = 
ORIGINATOR     = 

OBJECT_NAME    = UNKNOWN
OBJECT_ID      = 
CENTER_NAME    = EARTH
REF_FRAME      = TEME
TIME_SYSTEM    = UTC
MEAN_ELEMENT_THEORY = SGP/SGP4

EPOCH          = 2025-12-07T04:00:31.652064
MEAN_MOTION    = 13.59984266
ECCENTRICITY   = .0002674
INCLINATION    = 100.1169
RA_OF_ASC_NODE = 60.5165
ARG_OF_PERICENTER = 181.9708
MEAN_ANOMALY   = 178.1421

EPHEMERIS_TYPE = 0
CLASSIFICATION_TYPE = U
NORAD_CAT_ID   = 82965
ELEMENT_SET_NO = 999
REV_AT_EPOCH   = 52369
BSTAR          = .22495E-2
MEAN_MOTION_DOT = .163E-4
MEAN_MOTION_DDOT = 0

CCSDS_OMM_VERS = 2.0
CREATION_DATE  = 
ORIGINATOR     = 

OBJECT_NAME    = UNKNOWN
OBJECT_ID      = 
CENTER_NAME    = EARTH
REF_FRAME      = TEME
TIME_SYSTEM    = UTC
MEAN_ELEMENT_THEORY = SGP/SGP4

EPOCH          = 2025-12-07T19:21:06.533568
MEAN_MOTION    = 0.99115003
ECCENTRICITY   = .0124163
INCLINATION    = 6.1974
RA_OF_ASC_NODE = 290.6642
ARG_OF_PERICENTER = 251.3718
MEAN_ANOMALY   = 308.6118

EPHEMERIS_TYPE = 0
CLASSIFICATION_TYPE = U
NORAD_CAT_ID   = 83903
ELEMENT_SET_NO = 999
REV_AT_EPOCH   = 4361
BSTAR          = 0
MEAN_MOTION_DOT = -.351E-5
MEAN_MOTION_DDOT = 0

CCSDS_OMM_VERS = 2.0
CREATION_DATE  = 
ORIGINATOR     = 

OBJECT_NAME    = UNKNOWN
OBJECT_ID      = 
CENTER_NAME    = EARTH
REF_FRAME      = TEME
TIME_SYSTEM    = UTC
MEAN_ELEMENT_THEORY = SGP/SGP4

EPOCH          = 2025-12-08T03:22:26.357376
MEAN_MOTION    = 1.02660945
ECCENTRICITY   = .0232991
INCLINATION    = 5.7932
RA_OF_ASC_NODE = 297.5457
ARG_OF_PERICENTER = 273.2514
MEAN_ANOMALY   = 288.5473

EPHEMERIS_TYPE = 0
CLASSIFICATION_TYPE = U
NORAD_CAT_ID   = 83934
ELEMENT_SET_NO = 999
REV_AT_EPOCH   = 4523
BSTAR          = 0
MEAN_MOTION_DOT = -.1E-7
MEAN_MOTION_DDOT = 0

CCSDS_OMM_VERS = 2.0
CREATION_DATE  = 
ORIGINATOR     = 

OBJECT_NAME    = UNKNOWN
OBJECT_ID      = 
CENTER_NAME    = EARTH
REF_FRAME      = TEME
TIME_SYSTEM    = UTC
MEAN_ELEMENT_THEORY = SGP/SGP4

EPOCH          = 2025-12-07T23:00:46.345536
MEAN_MOTION    = 5.31955130
ECCENTRICITY   = .506914
INCLINATION    = 18.2522
RA_OF_ASC_NODE = 224.6661
ARG_OF_PERICENTER = 134.4385
MEAN_ANOMALY   = 280.3311

EPHEMERIS_TYPE = 0
CLASSIFICATION_TYPE = U
NORAD_CAT_ID   = 83970
ELEMENT_SET_NO = 999
REV_AT_EPOCH   = 19595
BSTAR          = .76686E-2
MEAN_MOTION_DOT = .6891E-4
MEAN_MOTION_DDOT = 0

CCSDS_OMM_VERS = 2.0
CREATION_DATE  = 
ORIGINATOR     = 

OBJECT_NAME    = UNKNOWN
OBJECT_ID      = 
CENTER_NAME    = EARTH
REF_FRAME      = TEME
TIME_SYSTEM    = UTC
MEAN_ELEMENT_THEORY = SGP/SGP4

EPOCH          = 2025-12-08T00:33:34.269984
MEAN_MOTION    = 2.16233443
ECCENTRICITY   = .6147668
INCLINATION    = 22.4631
RA_OF_ASC_NODE = 178.4942
ARG_OF_PERICENTER = 59.0847
MEAN_ANOMALY   = 347.2933

EPHEMERIS_TYPE = 0
CLASSIFICATION_TYPE = U
NORAD_CAT_ID   = 84006
ELEMENT_SET_NO = 999
REV_AT_EPOCH   = 8412
BSTAR          = 0
MEAN_MOTION_DOT = -.32E-6
MEAN_MOTION_DDOT = 0

CCSDS_OMM_VERS = 2.0
CREATION_DATE  = 
ORIGINATOR     = 

OBJECT_NAME    = UNKNOWN
OBJECT_ID      = 
CENTER_NAME    = EARTH
REF_FRAME      = TEME
TIME_SYSTEM    = UTC
MEAN_ELEMENT_THEORY = SGP/SGP4

EPOCH          = 2025-12-08T00:55:27.734016
MEAN_MOTION    = 7.51258791
ECCENTRICITY   = .3802227
INCLINATION    = 65.1712
RA_OF_ASC_NODE = 262.0901
ARG_OF_PERICENTER = 19.2147
MEAN_ANOMALY   = 351.9740

EPHEMERIS_TYPE = 0
CLASSIFICATION_TYPE = U
NORAD_CAT_ID   = 84188
ELEMENT_SET_NO = 999
REV_AT_EPOCH   = 4091
BSTAR          = .24927E+0
MEAN_MOTION_DOT = .452194E-2
MEAN_MOTION_DDOT = 0

CCSDS_OMM_VERS = 2.0
CREATION_DATE  = 
ORIGINATOR     = 

OBJECT_NAME    = UNKNOWN
OBJECT_ID      = 
CENTER_NAME    = EARTH
REF_FRAME      = TEME
TIME_SYSTEM    = UTC
MEAN_ELEMENT_THEORY = SGP/SGP4

EPOCH          = 2025-12-07T03:51:26.898336
MEAN_MOTION    = 3.17071665
ECCENTRICITY   = .6562408
INCLINATION    = 20.3312
RA_OF_ASC_NODE = 277.4334
ARG_OF_PERICENTER = 58.6055
MEAN_ANOMALY   = 349.3345

EPHEMERIS_TYPE = 0
CLASSIFICATION_TYPE = U
NORAD_CAT_ID   = 84232
ELEMENT_SET_NO = 999
REV_AT_EPOCH   = 10451
BSTAR          = .91554E-2
MEAN_MOTION_DOT = .11121E-3
MEAN_MOTION_DDOT = 0

CCSDS_OMM_VERS = 2.0
CREATION_DATE  = 
ORIGINATOR     = 

OBJECT_NAME    = UNKNOWN
OBJECT_ID      = 
CENTER_NAME    = EARTH
REF_FRAME      = TEME
TIME_SYSTEM    = UTC
MEAN_ELEMENT_THEORY = SGP/SGP4

EPOCH          = 2025-12-01T13:31:28.327584
MEAN_MOTION    = 2.62508844
ECCENTRICITY   = .689547
INCLINATION    = 9.4487
RA_OF_ASC_NODE = 340.0057
ARG_OF_PERICENTER = 84.4337
MEAN_ANOMALY   = 344.2430

EPHEMERIS_TYPE = 0
CLASSIFICATION_TYPE = U
NORAD_CAT_ID   = 84236
ELEMENT_SET_NO = 999
REV_AT_EPOCH   = 11368
BSTAR          = .2094E-2
MEAN_MOTION_DOT = .147E-5
MEAN_MOTION_DDOT = 0

CCSDS_OMM_VERS = 2.0
CREATION_DATE  = 
ORIGINATOR     = 

OBJECT_NAME    = UNKNOWN
OBJECT_ID      = 
CENTER_NAME    = EARTH
REF_FRAME      = TEME
TIME_SYSTEM    = UTC
MEAN_ELEMENT_THEORY = SGP/SGP4

EPOCH          = 2025-12-06T02:13:49.429344
MEAN_MOTION    = 6.21443411
ECCENTRICITY   = .4565377
INCLINATION    = 23.8275
RA_OF_ASC_NODE = 169.5275
ARG_OF_PERICENTER = 224.0099
MEAN_ANOMALY   = 88.9852

EPHEMERIS_TYPE = 0
CLASSIFICATION_TYPE = U
NORAD_CAT_ID   = 84292
ELEMENT_SET_NO = 999
REV_AT_EPOCH   = 22765
BSTAR          = .23571E-2
MEAN_MOTION_DOT = .431E-4
MEAN_MOTION_DDOT = 0

